{
  "type": "FeatureCollection",
  "features": [
    {
      "type": "Feature",
      "properties": {
        "norad_id": 67145,
        "name": "KUIPER-00204",
        "group": "last-30-days",
        "lat": 5.824328101437001,
        "lon": -120.07885353945673,
        "alt_km": 456.6187360420972,
        "timestamp": "2025-12-25T07:00:32.768034+00:00",
        "meta_object_name": "KUIPER-00204",
        "meta_object_id": "2025-301N",
        "meta_epoch": "2025-12-24T22:00:03.000096",
        "meta_mean_motion": 15.36499893,
        "meta_eccentricity": 0.00020067,
        "meta_inclination": 51.8741,
        "meta_ra_of_asc_node": 66.3295,
        "meta_arg_of_pericenter": 73.4953,
        "meta_mean_anomaly": 181.4627,
        "meta_ephemeris_type": 0,
        "meta_classification_type": "U",
        "meta_norad_cat_id": 67145,
        "meta_element_set_no": 999,
        "meta_rev_at_epoch": 234,
        "meta_bstar": 4.3696967e-05,
        "meta_mean_motion_dot": 1.194e-05,
        "meta_mean_motion_ddot": 0,
        "tle_line1": "1 67145U 25301N   25358.91670139  .00001194  00000+0  43697-4 0  9990",
        "tle_line2": "2 67145  51.8741  66.3295 0002006  73.4953 181.4627 15.36499893  2346"
      },
      "geometry": {
        "type": "Point",
        "coordinates": [
          -120.07885353945673,
          5.824328101437001
        ]
      }
    },
    {
      "type": "Feature",
      "properties": {
        "norad_id": 67146,
        "name": "KUIPER-00210",
        "group": "last-30-days",
        "lat": 51.67545335183499,
        "lon": 160.90890525325187,
        "alt_km": 452.2705559059459,
        "timestamp": "2025-12-25T07:00:32.768044+00:00",
        "meta_object_name": "KUIPER-00210",
        "meta_object_id": "2025-301P",
        "meta_epoch": "2025-12-24T22:00:03.000096",
        "meta_mean_motion": 15.34110797,
        "meta_eccentricity": 0.001057,
        "meta_inclination": 51.8596,
        "meta_ra_of_asc_node": 66.4952,
        "meta_arg_of_pericenter": 146.9583,
        "meta_mean_anomaly": 32.7113,
        "meta_ephemeris_type": 0,
        "meta_classification_type": "U",
        "meta_norad_cat_id": 67146,
        "meta_element_set_no": 999,
        "meta_rev_at_epoch": 240,
        "meta_bstar": -4.2284453e-05,
        "meta_mean_motion_dot": -1.802e-05,
        "meta_mean_motion_ddot": 0,
        "tle_line1": "1 67146U 25301P   25358.91670139 -.00001802  00000+0 -42284-4 0  9990",
        "tle_line2": "2 67146  51.8596  66.4952 0010570 146.9583  32.7113 15.34110797  2402"
      },
      "geometry": {
        "type": "Point",
        "coordinates": [
          160.90890525325187,
          51.67545335183499
        ]
      }
    },
    {
      "type": "Feature",
      "properties": {
        "norad_id": 67147,
        "name": "KUIPER-00221",
        "group": "last-30-days",
        "lat": 26.428787322519476,
        "lon": -138.39854412795896,
        "alt_km": 452.8564355449871,
        "timestamp": "2025-12-25T07:00:32.768056+00:00",
        "meta_object_name": "KUIPER-00221",
        "meta_object_id": "2025-301Q",
        "meta_epoch": "2025-12-24T22:00:03.000096",
        "meta_mean_motion": 15.35687089,
        "meta_eccentricity": 0.00050202,
        "meta_inclination": 51.8716,
        "meta_ra_of_asc_node": 66.3917,
        "meta_arg_of_pericenter": 109.2387,
        "meta_mean_anomaly": 119.7723,
        "meta_ephemeris_type": 0,
        "meta_classification_type": "U",
        "meta_norad_cat_id": 67147,
        "meta_element_set_no": 999,
        "meta_rev_at_epoch": 172,
        "meta_bstar": 6.2103365e-05,
        "meta_mean_motion_dot": 1.804e-05,
        "meta_mean_motion_ddot": 0,
        "tle_line1": "1 67147U 25301Q   25358.91670139  .00001804  00000+0  62103-4 0  9993",
        "tle_line2": "2 67147  51.8716  66.3917 0005020 109.2387 119.7723 15.35687089  1726"
      },
      "geometry": {
        "type": "Point",
        "coordinates": [
          -138.39854412795896,
          26.428787322519476
        ]
      }
    },
    {
      "type": "Feature",
      "properties": {
        "norad_id": 67148,
        "name": "KUIPER-00232",
        "group": "last-30-days",
        "lat": 1.3561451368148674,
        "lon": -116.55668377101775,
        "alt_km": 457.2130480070746,
        "timestamp": "2025-12-25T07:00:32.768069+00:00",
        "meta_object_name": "KUIPER-00232",
        "meta_object_id": "2025-301R",
        "meta_epoch": "2025-12-24T22:00:03.000096",
        "meta_mean_motion": 15.36664693,
        "meta_eccentricity": 0.00015761,
        "meta_inclination": 51.874,
        "meta_ra_of_asc_node": 66.3224,
        "meta_arg_of_pericenter": 49.5015,
        "meta_mean_anomaly": 210.9294,
        "meta_ephemeris_type": 0,
        "meta_classification_type": "U",
        "meta_norad_cat_id": 67148,
        "meta_element_set_no": 999,
        "meta_rev_at_epoch": 211,
        "meta_bstar": 5.4834084e-05,
        "meta_mean_motion_dot": 1.607e-05,
        "meta_mean_motion_ddot": 0,
        "tle_line1": "1 67148U 25301R   25358.91670139  .00001607  00000+0  54834-4 0  9997",
        "tle_line2": "2 67148  51.8740  66.3224 0001576  49.5015 210.9294 15.36664693  2119"
      },
      "geometry": {
        "type": "Point",
        "coordinates": [
          -116.55668377101775,
          1.3561451368148674
        ]
      }
    },
    {
      "type": "Feature",
      "properties": {
        "norad_id": 67149,
        "name": "KUIPER-00241",
        "group": "last-30-days",
        "lat": 13.467047713562156,
        "lon": -126.30126108519431,
        "alt_km": 455.459504557065,
        "timestamp": "2025-12-25T07:00:32.768079+00:00",
        "meta_object_name": "KUIPER-00241",
        "meta_object_id": "2025-301S",
        "meta_epoch": "2025-12-24T22:00:03.000096",
        "meta_mean_motion": 15.36190221,
        "meta_eccentricity": 0.0002828,
        "meta_inclination": 51.8739,
        "meta_ra_of_asc_node": 66.3518,
        "meta_arg_of_pericenter": 94.8815,
        "meta_mean_anomaly": 150.6825,
        "meta_ephemeris_type": 0,
        "meta_classification_type": "U",
        "meta_norad_cat_id": 67149,
        "meta_element_set_no": 999,
        "meta_rev_at_epoch": 256,
        "meta_bstar": 3.0841784e-05,
        "meta_mean_motion_dot": 7.18e-06,
        "meta_mean_motion_ddot": 0,
        "tle_line1": "1 67149U 25301S   25358.91670139  .00000718  00000+0  30842-4 0  9993",
        "tle_line2": "2 67149  51.8739  66.3518 0002828  94.8815 150.6825 15.36190221  2566"
      },
      "geometry": {
        "type": "Point",
        "coordinates": [
          -126.30126108519431,
          13.467047713562156
        ]
      }
    },
    {
      "type": "Feature",
      "properties": {
        "norad_id": 67150,
        "name": "KUIPER-00245",
        "group": "last-30-days",
        "lat": 28.582867334674674,
        "lon": -140.7506327550049,
        "alt_km": 452.4606592828004,
        "timestamp": "2025-12-25T07:00:32.768092+00:00",
        "meta_object_name": "KUIPER-00245",
        "meta_object_id": "2025-301T",
        "meta_epoch": "2025-12-24T22:00:03.000096",
        "meta_mean_motion": 15.35592343,
        "meta_eccentricity": 0.00050124,
        "meta_inclination": 51.8723,
        "meta_ra_of_asc_node": 66.3964,
        "meta_arg_of_pericenter": 117.7466,
        "meta_mean_anomaly": 108.4046,
        "meta_ephemeris_type": 0,
        "meta_classification_type": "U",
        "meta_norad_cat_id": 67150,
        "meta_element_set_no": 999,
        "meta_rev_at_epoch": 172,
        "meta_bstar": 4.8226958e-05,
        "meta_mean_motion_dot": 1.31e-05,
        "meta_mean_motion_ddot": 0,
        "tle_line1": "1 67150U 25301T   25358.91670139  .00001310  00000+0  48227-4 0  9990",
        "tle_line2": "2 67150  51.8723  66.3964 0005012 117.7466 108.4046 15.35592343  1724"
      },
      "geometry": {
        "type": "Point",
        "coordinates": [
          -140.7506327550049,
          28.582867334674674
        ]
      }
    },
    {
      "type": "Feature",
      "properties": {
        "norad_id": 67151,
        "name": "KUIPER-00246",
        "group": "last-30-days",
        "lat": 20.71127976625348,
        "lon": -132.71340132489632,
        "alt_km": 454.0644865415461,
        "timestamp": "2025-12-25T07:00:32.768104+00:00",
        "meta_object_name": "KUIPER-00246",
        "meta_object_id": "2025-301U",
        "meta_epoch": "2025-12-24T22:00:03.000096",
        "meta_mean_motion": 15.35898544,
        "meta_eccentricity": 0.00038406,
        "meta_inclination": 51.8733,
        "meta_ra_of_asc_node": 66.3732,
        "meta_arg_of_pericenter": 108.2138,
        "meta_mean_anomaly": 128.2517,
        "meta_ephemeris_type": 0,
        "meta_classification_type": "U",
        "meta_norad_cat_id": 67151,
        "meta_element_set_no": 999,
        "meta_rev_at_epoch": 225,
        "meta_bstar": 4.9317417e-05,
        "meta_mean_motion_dot": 1.364e-05,
        "meta_mean_motion_ddot": 0,
        "tle_line1": "1 67151U 25301U   25358.91670139  .00001364  00000+0  49317-4 0  9991",
        "tle_line2": "2 67151  51.8733  66.3732 0003840 108.2138 128.2517 15.35898544  2251"
      },
      "geometry": {
        "type": "Point",
        "coordinates": [
          -132.71340132489632,
          20.71127976625348
        ]
      }
    }
  ]
}